
 1 90033U RELEAS14 00051.92409179 +.00000011  00000 0  00000 0 4 0041                                                                                                                                                                                                                                                                                                                                                                                                                                                           
 2 90033  52.6683  23.9378 0137366 276.7208  81.7737  6.4729361700921                                                                                                                                                                                                                                                                                                                                                                                                                                                           

         0.0000000        6.4729362        0.0137366       52.6683000       23.9378000      276.7208000       81.7737000
      2700.0000000        6.4729362        0.0137353       52.6692648       22.7531022      277.5678868      131.0765060
      5400.0000000        6.4729362        0.0137348       52.6696663       21.5686844      278.4120582      180.3817569
      8100.0000000        6.4729362        0.0137356       52.6696241       20.3840381      279.2567717      229.6868597
     10800.0000000        6.4729362        0.0137372       52.6694933       19.1989535      280.1049427      278.9892642
     13500.0000000        6.4729362        0.0137387       52.6696184       18.0135297      280.9570119      328.2883473
     16200.0000000        6.4729362        0.0137395       52.6701816       16.8280814      281.8106138       17.5859014
     18900.0000000        6.4729362        0.0137395       52.6711006       15.6429935      282.6617949       66.8851781
     21600.0000000        6.4729362        0.0137396       52.6720102       14.4584878      283.5077966      116.1885221
     24300.0000000        6.4729362        0.0137407       52.6724550       13.2743816      284.3496674      165.4951836
     27000.0000000        6.4729362        0.0137429       52.6722743       12.0901186      285.1913753      214.8021531
     29700.0000000        6.4729362        0.0137456       52.6718239       10.9052090      286.0361047      264.1071014
     32400.0000000        6.4729362        0.0137481       52.6717113        9.7197114      286.8845841      313.4092180
     35100.0000000        6.4729362        0.0137497       52.6722350        8.5342415      287.7357853        2.7085109
     37800.0000000        6.4729362        0.0137501       52.6730734        7.3494256      288.5868058       52.0068789
     40500.0000000        6.4729362        0.0137498       52.6735939        6.1653089      289.4337232      101.3082531
     43200.0000000        6.4729362        0.0137501       52.6734699        4.9813713      290.2755691      150.6145454


 1 90034U RELEAS14 00051.38558242 +.00711372  97635-5  13083-2 4 0021                                                                                                                                                                                                                                                                                                                                                                                                                                                           
 2 90034  62.8218  97.3466 0233042 119.4400 242.9881 17.6709972501011                                                                                                                                                                                                                                                                                                                                                                                                                                                           

         0.0000000       17.6709972        0.0233042       62.8218000       97.3466000      119.4400000      242.9881000
Warning: Decay condition. Distance from the Geoid (Km) =    -79.927

